STARLINK-2447
1 28110C 21027U   21325.14913267  .00002070  00000-0  13874-3 0  3250
2 28110  53.0557   7.5538 0001577  51.1404  36.8419 15.06390221    15
